DELTA 2 R/B(1)          
1 20453U 90008B   25339.31897586  .00051911  00000+0  85376-3 0  9998
2 20453  35.6069  68.4238 0112037 110.7477 250.5302 15.44396047911480
COSMOS 2058             
1 20465U 90010A   25339.20557777  .00008149  00000+0  49462-3 0  9998
2 20465  82.4634 140.4417 0008398 305.1903  54.8540 15.10359068927974
SL-14 R/B               
1 20466U 90010B   25339.32579121  .00000838  00000+0  98870-4 0  9994
2 20466  82.5021 356.0107 0018362 249.2906 110.6341 14.83460749914491
SL-14 R/B               
1 20511U 90018B   25339.32043054  .00000916  00000+0  11220-3 0  9994
2 20511  82.5203 311.2997 0017520  46.5104 313.7563 14.82034472908604
HST                     
1 20580U 90037B   25339.28091862  .00012538  00000+0  43905-3 0  9994
2 20580  28.4702 323.2508 0002016 153.2318 206.8381 15.27889575758853
SL-16 R/B               
1 20625U 90046B   25338.82835969  .00000271  00000+0  16443-3 0  9995
2 20625  70.9984 137.1362 0011885  87.8797 272.3686 14.14999306834977
COSMOS 2084             
1 20663U 90055A   25339.25919792  .00005913  00000+0  42427-3 0  9991
2 20663  62.7914 297.4799 0032877 173.7289 186.4229 15.04944158922106
SL-6 R/B(2)             
1 20666U 90055D   25339.11645366  .00004782  00000+0  36725-3 0  9999
2 20666  62.7830 215.3175 0012011 302.7582  57.2358 15.03024289923978
SL-8 R/B                
1 20775U 90078B   25339.25549398  .00034122  00000+0  10565-2 0  9992
2 20775  82.9040 336.0078 0374441 331.0806  27.0102 14.85472876795260
SL-8 R/B                
1 21088U 91006B   25339.28043642  .00000125  00000+0  11085-3 0  9991
2 21088  82.9430 240.2608 0021468 301.9034 174.8450 13.77488841751070
OKEAN-3                 
1 21397U 91039A   25339.29760747  .00006316  00000+0  45399-3 0  9996
2 21397  82.5187  68.2507 0012998 293.0614  66.9241 15.04043066850849
COSMOS 2151             
1 21422U 91042A   25339.28366575  .00003795  00000+0  30551-3 0  9991
2 21422  82.4955 174.6881 0013273  24.3700 335.8148 14.99642651849047
SL-14 R/B               
1 21423U 91042B   25339.28614776  .00000810  00000+0  99646-4 0  9997
2 21423  82.4919 308.7131 0016786 186.1648 173.9362 14.81727821839093
ERS-1                   
1 21574U 91050A   25339.02073159  .00000661  00000+0  22608-3 0  9996
2 21574  98.7907 349.8824 0032850 122.2305 238.2073 14.39355770802113
ARIANE 40 R/B           
1 21610U 91050F   25339.15801855  .00000776  00000+0  24513-3 0  9997
2 21610  98.2175  29.8618 0003258  21.7357 338.3971 14.42803930805361
INTERCOSMOS 25          
1 21819U 91086A   25339.12236052  .00003755  00000+0  74547-3 0  9997
2 21819  82.6072   7.1824 1486926 320.8307  29.3762 12.11688735485232
SL-8 R/B                
1 21876U 92008B   25339.11904708  .00000193  00000+0  18243-3 0  9998
2 21876  82.9263 338.1155 0035609  40.6462  32.0984 13.75956610696412
SL-8 R/B                
1 21938U 92020B   25339.21431873  .00000103  00000+0  91342-4 0  9993
2 21938  82.9312 223.9052 0028420 199.4147 276.5316 13.75525074688140
USA 81                  
1 21949U 92023A   25339.27959348  .00000339  00000+0  11832-3 0  9992
2 21949  85.0087 185.8785 0001744  62.4611 297.6758 14.32322871 81278
COSMOS 2219             
1 22219U 92076A   25339.08476619 -.00000145  00000+0 -51221-4 0  9999
2 22219  71.0591 215.8347 0018901 337.2312  22.7970 14.14063604705009
SL-16 R/B               
1 22220U 92076B   25339.30591089 -.00000029  00000+0  96686-5 0  9990
2 22220  71.0015  27.1913 0015033 244.1211 186.1661 14.16841628708469
COSMOS 2221             
1 22236U 92080A   25339.19143536  .00003522  00000+0  31342-3 0  9995
2 22236  82.5046   9.5508 0015483 145.3214 214.9021 14.95717134766662
SL-16 R/B               
1 22285U 92093B   25338.97026119  .00000013  00000+0  31002-4 0  9991
2 22285  71.0202 203.1052 0001968  95.9635 264.1712 14.15425732699750
COSMOS 2228             
1 22286U 92094A   25339.26935756  .00004603  00000+0  40024-3 0  9994
2 22286  82.5170 327.6826 0016318 258.7881 101.1507 14.96675173761937
SL-16 R/B               
1 22566U 93016B   25339.28394643 -.00000182  00000+0 -69098-4 0  9999
2 22566  71.0090  53.4625 0007804 111.8750 248.3203 14.15288286688815
COSMOS 2242             
1 22626U 93024A   25339.14485306  .00004747  00000+0  41965-3 0  9998
2 22626  82.5192 357.1048 0014777 262.4799  97.4744 14.96059237766257
SL-16 R/B               
1 22803U 93059B   25339.10926823  .00000336  00000+0  19012-3 0  9991
2 22803  70.9897 210.5766 0017535 346.7816  13.2846 14.17211337666136
ARIANE 40 R/B           
1 22830U 93061H   25339.21589760  .00000545  00000+0  21562-3 0  9996
2 22830  98.5086  44.8824 0010447 198.4835 161.5971 14.32793782680579
COSMOS 2278             
1 23087U 94023A   25339.32194381 -.00000010  00000+0  19657-4 0  9994
2 23087  71.0550  12.5302 0008731 191.1996 168.8933 14.14351298631464
SL-16 R/B               
1 23088U 94023B   25339.27011870  .00000372  00000+0  21691-3 0  9990
2 23088  71.0004 269.1717 0001076  61.7401 298.3831 14.14999493632739
